IRIDIUM 149             
1 43250U 18030B   24105.89911270  .00000631  00000+0  21807-3 0  9995
2 43250  86.3928 261.8862 0001900  89.4486 270.6927 14.34218248316453
IRIDIUM 140             
1 43252U 18030D   24105.93716880 -.00000033  00000+0 -18875-4 0  9992
2 43252  86.3931 261.9207 0002117  83.6854 276.4582 14.34217303316495
IRIDIUM 145             
1 43253U 18030E   24105.92448309  .00000383  00000+0  12959-3 0  9992
2 43253  86.3933 261.8999 0001923  85.8029 274.3386 14.34218676316423
IRIDIUM 146             
1 43254U 18030F   24105.83568325  .00000185  00000+0  59162-4 0  9992
2 43254  86.3931 261.9518 0001929  86.1587 273.9829 14.34219636316423
IRIDIUM 148             
1 43255U 18030G   24105.87373856  .00000571  00000+0  19697-3 0  9997
2 43255  86.3933 261.9668 0001761  93.6058 266.5339 14.34219942316460
IRIDIUM 142             
1 43256U 18030H   24105.91179475  .00000261  00000+0  86023-4 0  9998
2 43256  86.3930 261.8687 0001833  87.0389 273.1016 14.34215552316438
